FLOCK 4BE-17            
1 60492U 24149AA  26186.02418053  .00026154  00000+0  64893-3 0  9997
2 60492  97.3765 269.5399 0003641 172.7146 187.4154 15.40335602105000
FLOCK 4BE-22            
1 60494U 24149AC  26186.18434426  .00026263  00000+0  62188-3 0  9994
2 60494  97.3727 269.9220 0003978 183.7840 176.3377 15.41749892105075
FLOCK 4BE-34            
1 60495U 24149AD  26186.13679238  .00026670  00000+0  63209-3 0  9999
2 60495  97.3777 270.7077 0003870 190.7052 169.4113 15.41720122105093
FLOCK 4BE-32            
1 60497U 24149AF  26186.22299910  .00030333  00000+0  69238-3 0  9995
2 60497  97.3713 270.3521 0004027 187.3580 172.7609 15.42823453105110
FLOCK 4BE-11            
1 60501U 24149AK  26186.20812668  .00029149  00000+0  64808-3 0  9991
2 60501  97.3692 270.5846 0004138 187.4957 172.6229 15.43616389105134
FLOCK 4BE-24            
1 60505U 24149AP  26186.19315268  .00034689  00000+0  76554-3 0  9993
2 60505  97.3708 270.8328 0004214 201.2673 158.8400 15.43802133105141
FLOCK 4BE-29            
1 60509U 24149AT  26186.19192343  .00035566  00000+0  75865-3 0  9993
2 60509  97.3805 272.3430 0002699 201.8017 158.3118 15.44810180105195
FLOCK 4BE-2             
1 60511U 24149AV  26185.77098520  .00101305  00000+0  15047-2 0  9991
2 60511  97.3825 273.5921 0004739 202.0370 158.0681 15.54828365105232
FLOCK 4BE-13            
1 60512U 24149AW  26186.19482062  .00024927  00000+0  57768-3 0  9998
2 60512  97.3717 270.7988 0004290 186.4208 173.6985 15.42406741105149
FLOCK 4BE-27            
1 60513U 24149AX  26186.19128640  .00016314  00000+0  48562-3 0  9991
2 60513  97.3820 268.0543 0003002 219.1109 140.9918 15.34784182104901
FLOCK 4BE-9             
1 60514U 24149AY  26185.49228628  .00025146  00000+0  60392-3 0  9999
2 60514  97.3787 269.9371 0002656 203.8960 156.2164 15.41334973104980
FLOCK 4BE-6             
1 60516U 24149BA  26186.18469298  .00025370  00000+0  63430-3 0  9993
2 60516  97.3782 269.9607 0003387 205.5099 154.5980 15.40109178105044
FLOCK 4BE-14            
1 60517U 24149BB  26186.15147109  .00028493  00000+0  67748-3 0  9990
2 60517  97.3690 270.0804 0004317 210.5955 149.5041 15.41607019105091
FLOCK 4BE-1             
1 60518U 24149BC  26185.75950135  .00030951  00000+0  69699-3 0  9996
2 60518  97.3775 271.0254 0004092 210.7594 149.3415 15.43223831105087
FLOCK 4BE-28            
1 60519U 24149BD  26185.81204371  .00039100  00000+0  81168-3 0  9998
2 60519  97.3744 271.8577 0004151 205.2896 154.8150 15.45585758105167
FLOCK 4BE-5             
1 60559U 24149CV  26186.21461128  .00024524  00000+0  59909-3 0  9994
2 60559  97.3837 270.3940 0003067 203.6949 156.4157 15.40823081105050
